[{"OBJECT_NAME":"IRIDIUM 142","OBJECT_ID":"2018-030H","EPOCH":"2026-03-09T19:54:27.398592","MEAN_MOTION":14.34217645,"ECCENTRICITY":0.000204,"INCLINATION":86.4006,"RA_OF_ASC_NODE":331.9079,"ARG_OF_PERICENTER":94.7375,"MEAN_ANOMALY":265.4053,"EPHEMERIS_TYPE":0,"CLASSIFICATION_TYPE":"U","NORAD_CAT_ID":43256,"ELEMENT_SET_NO":999,"REV_AT_EPOCH":41589,"BSTAR":-2.157633e-6,"MEAN_MOTION_DOT":1.4e-7,"MEAN_MOTION_DDOT":0},{"OBJECT_NAME":"SL-8 R\/B","OBJECT_ID":"1983-079B","EPOCH":"2026-03-09T16:00:34.681248","MEAN_MOTION":14.37526277,"ECCENTRICITY":0.00162307,"INCLINATION":74.06,"RA_OF_ASC_NODE":157.5435,"ARG_OF_PERICENTER":159.0907,"MEAN_ANOMALY":201.0914,"EPHEMERIS_TYPE":0,"CLASSIFICATION_TYPE":"U","NORAD_CAT_ID":14241,"ELEMENT_SET_NO":999,"REV_AT_EPOCH":23020,"BSTAR":0.00010749195,"MEAN_MOTION_DOT":2.96e-6,"MEAN_MOTION_DDOT":0}]
